FENGYUN 3C              
1 39260U 13052A   23141.88692538  .00000114  00000+0  78265-4 0  9998
2 39260  98.4294 157.4136 0011552  25.2850 334.8888 14.16036613499815
CASSIOPE                
1 39265U 13055A   23141.51935433  .00018844  00000+0  45801-3 0  9998
2 39265  80.9606 266.0100 0573143  28.5342 334.5983 14.51093302501119
ZACUBE-1 (TSHEPISOSAT)  
1 39417U 13066B   23141.47976141  .00004722  00000+0  54724-3 0  9999
2 39417  97.6841 104.0888 0055595  17.2352 343.0734 14.84801258513238
CINEMA-3 (KHUSAT-2)     
1 39426U 13066L   23141.36851126  .00001335  00000+0  20731-3 0  9990
2 39426  97.8281  72.4071 0099733 232.4357 126.7761 14.71449184508937
TRITON-1                
1 39427U 13066M   23141.57282331  .00002583  00000+0  39435-3 0  9997
2 39427  97.8356  68.4433 0106630 262.9364  95.9707 14.70903626508638
DELFI-N3XT              
1 39428U 13066N   23141.33381953  .00005182  00000+0  75122-3 0  9993
2 39428  97.8339  67.1264 0109299 275.8729  83.0029 14.72439719508184
GOMX-1                  
1 39430U 13066Q   23141.76584712  .00003128  00000+0  54634-3 0  9994
2 39430  97.7827  34.4444 0147204  57.2898 304.2400 14.61708543505676
BRITE-PL1 (LEM)         
1 39431U 13066R   23141.44976415  .00000667  00000+0  15088-3 0  9990
2 39431  97.6794 329.7103 0198524 260.6106  97.2597 14.47919176501261
ICUBE-1                 
1 39432U 13066S   23141.72506752  .00006057  00000+0  55056-3 0  9993
2 39432  97.4835 133.8081 0028231 207.6486 152.3236 14.95282199516398
HUMSAT-D                
1 39433U 13066T   23141.79066158  .00007547  00000+0  62388-3 0  9993
2 39433  97.4501 141.8373 0027378 177.8338 182.3009 14.98908884516982
VELOX-PII               
1 39438U 13066Y   23141.42585756  .00003640  00000+0  45942-3 0  9995
2 39438  97.7407  95.7367 0068629  75.8109 285.0715 14.80858459510984
FIRST-MOVE              
1 39439U 13066Z   23141.41876191  .00010218  00000+0  10505-2 0  9996
2 39439  97.6791 107.7524 0057055   8.1938 352.0198 14.89304570512249
CUBEBUG-2 (LO-74)       
1 39440U 13066AA  23141.38391621  .00003445  00000+0  44769-3 0  9998
2 39440  97.7715  91.0182 0077205 113.8743 247.0583 14.79239133510194
NEE-02 KRYSAOR          
1 39441U 13066AB  23141.39232281  .00002397  00000+0  32734-3 0  9990
2 39441  97.7824  87.8982 0079609 130.0399 230.7832 14.77322730509890
FUNCUBE-1 (AO-73)       
1 39444U 13066AE  23141.47280613  .00005774  00000+0  64236-3 0  9998
2 39444  97.6705 106.6056 0053374   3.1116 357.0421 14.86466055511675
HINCUBE                 
1 39445U 13066AF  23141.64126926  .00006316  00000+0  70652-3 0  9996
2 39445  97.6720 106.5392 0053547   5.1542 355.0214 14.86204936511814
UWE-3                   
1 39446U 13066AG  23141.42318501  .00004653  00000+0  57179-3 0  9996
2 39446  97.7337  97.2366 0067424  67.2173 293.6146 14.81877607510462
AIST-1 (RS-41)          
1 39492U 13078C   23141.77028722  .00002256  00000+0  23286-3 0  9990
2 39492  82.4180 272.6697 0020392  66.5124 293.8235 14.89610008510129
SPROUT                  
1 39770U 14029E   23141.57520853  .00020314  00000+0  15799-2 0  9990
2 39770  97.9790 268.0486 0006493  35.7739 324.3918 15.01291614488166
UNISAT-6                
1 40012U 14033C   23141.49732561  .00003370  00000+0  47639-3 0  9990
2 40012  97.6714 316.8703 0056698 141.9051 218.6189 14.76659582479835
BUGSAT-1 (TITA)         
1 40014U 14033E   23141.73227799  .00005495  00000+0  45106-3 0  9998
2 40014  98.1387 159.5113 0028832   3.5032 356.6387 14.99334149486764
DUCHIFAT-1              
1 40021U 14033M   23141.43168788  .00008794  00000+0  75653-3 0  9990
2 40021  98.0557 104.5388 0011019  12.9138 347.2363 14.97593720485189
NANOSATC-BR1            
1 40024U 14033Q   23141.56206042  .00007936  00000+0  71835-3 0  9998
2 40024  98.0277  96.0291 0011432  21.9213 338.2494 14.95636168484436
QB50P1                  
1 40025U 14033R   23141.54153878  .00006224  00000+0  59298-3 0  9993
2 40025  97.9967  87.8325 0012227  31.4672 328.7276 14.93694281484671
DTUSAT-2                
1 40030U 14033W   23141.07075545  .00005005  00000+0  48824-3 0  9990
2 40030  97.9673  81.2689 0011759  29.5537 330.6344 14.92858617483951
QB50P2                  
1 40032U 14033Y   23141.38173622  .00005824  00000+0  56700-3 0  9992
2 40032  97.9675  81.6012 0011671  30.3247 329.8645 14.92863455483972
POLYITAN-1              
1 40042U 14033AJ  23141.42408609  .00006739  00000+0  62910-3 0  9990
2 40042  98.0082  89.5241 0013813  22.7318 337.4510 14.94452526484042
TIGRISAT                
1 40043U 14033AK  23141.75430476  .00002726  00000+0  38813-3 0  9991
2 40043  97.6640 318.1282 0058863 138.4937 222.0767 14.76407181479819
AISAT                   
1 40054U 14034B   23141.46746333  .00005837  00000+0  72289-3 0  9995
2 40054  98.3675 332.4049 0010336 316.0733  43.9656 14.83091881479505
CANX-4                  
1 40055U 14034C   23141.45554908  .00001358  00000+0  20289-3 0  9997
2 40055  98.3890 315.3932 0013946   8.0700 352.0730 14.76463746478600
CANX-5                  
1 40056U 14034D   23141.46241885  .00001361  00000+0  20323-3 0  9999
2 40056  98.3893 315.3863 0013934   8.2748 351.8688 14.76466595469387
VELOX-I                 
1 40057U 14034E   23141.79966597  .00004215  00000+0  54146-3 0  9991
2 40057  98.3724 333.6489 0009306 333.8916  26.1825 14.81737027479529
METEOR-M 2              
1 40069U 14037A   23141.72095332  .00000078  00000+0  55219-4 0  9996
2 40069  98.4239 148.9259 0006901  65.2318 294.9578 14.20778018459892
DX1                     
1 40071U 14037C   23141.74129444  .00001620  00000+0  20696-3 0  9997
2 40071  98.3635  31.5622 0007193 317.8852  42.1806 14.82909747479452
UKUBE-1                 
1 40074U 14037F   23141.69297268  .00005131  00000+0  56406-3 0  9993
2 40074  98.3476  44.7925 0002342 279.9977  80.0973 14.88097399480317
FIREBIRD 3              
1 40377U 15003B   23141.43342465  .00136650  00000+0  12443-2 0  9998
2 40377  99.0763  92.5855 0039855 301.3172  58.4183 15.66442481460457
FIREBIRD 4              
1 40378U 15003C   23141.43728615  .00130874  00000+0  11926-2 0  9991
2 40378  99.0784  92.9113 0040085 300.3340  59.3952 15.66428817460467
GRIFEX                  
1 40379U 15003D   23141.33812018  .00046440  00000+0  10563-2 0  9993
2 40379  99.0791  71.6623 0083894   5.4344 354.7787 15.39143425459249
CP10 (EXOCUBE)          
1 40380U 15003E   23141.27998107  .00030008  00000+0  85409-3 0  9997
2 40380  99.0851  61.7850 0100482  37.8349 322.9894 15.31096167458604
DEORBITSAIL             
1 40719U 15032E   23141.60656714  .00005289  00000+0  68278-3 0  9995
2 40719  97.7375  13.3327 0014624 351.6585   8.4383 14.81312000423881
XW-2C                   
1 40906U 15049H   23141.73287571  .00011397  00000+0  44722-3 0  9991
2 40906  97.4938 148.7946 0009829 250.2802 109.7376 15.25855750424362
XW-2D                   
1 40907U 15049J   23141.71876107  .00014814  00000+0  54937-3 0  9995
2 40907  97.4918 149.2435 0009010 241.3058 118.7276 15.27673909424440
LILACSAT-2              
1 40908U 15049K   23141.75199759  .00006752  00000+0  32124-3 0  9997
2 40908  97.5247 144.8898 0012118 283.6573  76.3311 15.19440556423781
XW-2E                   
1 40909U 15049L   23141.76628829  .00028595  00000+0  79029-3 0  9998
2 40909  97.4534 155.2776 0008394 198.6958 161.3979 15.36968456425087
XW-2F                   
1 40910U 15049M   23141.75284736  .00027252  00000+0  76864-3 0  9997
2 40910  97.4627 154.4949 0009068 203.0736 157.0102 15.36337728424822
XW-2B                   
1 40911U 15049N   23141.71096812  .00014938  00000+0  55753-3 0  9991
2 40911  97.4897 149.6889 0008975 243.3992 116.6327 15.27459394424327
KAITUO 1B               
1 40912U 15049P   23141.74616540  .00036672  00000+0  85712-3 0  9998
2 40912  97.4179 159.0427 0010422 163.8457 196.3124 15.42026163425531
LAPAN-A2                
1 40931U 15052B   23139.73487880  .00001148  00000+0  69447-4 0  9990
2 40931   5.9997 289.6757 0013379 254.6603 105.1406 14.77211010413145
LQSAT                   
1 40958U 15057A   23141.70230494  .00000782  00000+0  12627-3 0  9991
2 40958  97.7038 176.9739 0016662 313.0737  46.9077 14.73881063409781
ATHENOXAT 1             
1 41168U 15077C   23141.11964936  .00144011  00000+0  21873-2 0  9993
2 41168  14.9876  73.0453 0005125 339.4437  20.5683 15.52629466412091
GALASSIA                
1 41170U 15077E   23141.18699551  .00052196  00000+0  13402-2 0  9992
2 41170  14.9876  78.5109 0007144   5.3036 354.7363 15.37387543411893
VELOX-II                
1 41171U 15077F   23141.42362296  .00022959  00000+0  82063-3 0  9997
2 41171  14.9887 174.7259 0006695 171.0638 188.9804 15.26438972411102
CHUBUSAT-2              
1 41338U 16012B   23141.06215181  .00004477  00000+0  31128-3 0  9993
2 41338  31.0045  31.1991 0012602 268.7260  91.1932 15.03810337398297
CHUBUSAT-3              
1 41339U 16012C   23141.78462464  .00003914  00000+0  27229-3 0  9993
2 41339  31.0107  23.6477 0012504 282.9734  76.9506 15.03688357398391
HORYU-4                 
1 41340U 16012D   23140.98101570  .00008386  00000+0  53167-3 0  9992
2 41340  31.0054 358.2704 0012022 329.8630  30.1315 15.07555094398615
OUFTI-1                 
1 41458U 16025C   23141.50771755  .00036687  00000+0  10154-2 0  9996
2 41458  98.1851 342.5166 0103618 184.0280 176.0136 15.31581921388969
E-ST@R-II               
1 41459U 16025D   23141.65125517  .00030812  00000+0  92594-3 0  9995
2 41459  98.1877 340.2927 0110328 190.9820 168.9008 15.28468496388842
AAUSAT 4                
1 41460U 16025E   23141.54253697  .00096770  00000+0  14838-2 0  9995
2 41460  98.1628 351.8602 0066622 148.9191 211.6027 15.51403112389632
AIST-2D (RS-48)         
1 41465U 16026B   23141.74212671  .00025101  00000+0  35327-3 0  9997
2 41465  97.0004  13.5328 0005947 350.2650   9.8490 15.56624706395852
